IRIDIUM 155             
1 43573U 18061E   22266.53192513  .00000117  00000+0  34641-4 0  9995
2 43573  86.3911 266.1122 0002437  94.9068 265.2407 14.34216705218048
IRIDIUM 154             
1 43574U 18061F   22266.51289970  .00000115  00000+0  34110-4 0  9997
2 43574  86.3914 266.1880 0001928  88.8478 271.2938 14.34219741218098
IRIDIUM 163             
1 43575U 18061G   22266.42408972  .00000117  00000+0  34827-4 0  9990
2 43575  86.3912 266.1825 0002328  80.6245 279.5214 14.34220137218058
IRIDIUM 156             
1 43576U 18061H   22266.53827064  .00000109  00000+0  31866-4 0  9991
2 43576  86.3912 266.1402 0002519  87.1786 272.9698 14.34218334218064
IRIDIUM 164             
1 43577U 18061J   22266.51922495  .00000109  00000+0  31714-4 0  9996
2 43577  86.3914 266.1675 0002023  85.8489 274.2937 14.34215282218109
IRIDIUM 159             
1 43578U 18061K   22266.55729424  .00000113  00000+0  33381-4 0  9995
2 43578  86.3911 266.1173 0002031  87.8049 272.3379 14.34218750218071
IRIDIUM 180             
1 43922U 19002A   22266.34749030  .00000196  00000+0  62911-4 0  9998
2 43922  86.4030 203.1110 0001785  71.8500 288.2890 14.34217459193654
IRIDIUM 176             
1 43923U 19002B   22266.54234722  .00000325  00000+0  47681-4 0  9999
2 43923  86.6161 203.0677 0002335  92.8358 267.3127 14.72239182198762
IRIDIUM 168             
1 43924U 19002C   22266.55044024  .00000178  00000+0  56370-4 0  9996
2 43924  86.4041 203.0636 0002129  81.0694 279.0742 14.34214714193666
IRIDIUM 173             
1 43925U 19002D   22266.53776504  .00000187  00000+0  59624-4 0  9995
2 43925  86.4032 203.0151 0001982  79.9274 280.2145 14.34220187193645
IRIDIUM 169             
1 43926U 19002E   22266.44611779  .00000232  00000+0  69315-4 0  9997
2 43926  86.4223 234.6159 0005762 130.3494 229.8208 14.38611887194300
IRIDIUM 172             
1 43927U 19002F   22266.32211750  .00000206  00000+0  66612-4 0  9998
2 43927  86.4031 203.1089 0001927  78.3691 281.7721 14.34215516193626
IRIDIUM 175             
1 43928U 19002G   22266.33229785  .00000524  00000+0  79210-4 0  9998
2 43928  86.6167 202.9879 0002259  85.2894 274.8581 14.72247407198723
IRIDIUM 171             
1 43929U 19002H   22266.37286524  .00000187  00000+0  59762-4 0  9992
2 43929  86.4040 203.2423 0001898  82.9891 277.1521 14.34216707193621
IRIDIUM 170             
1 43930U 19002J   22266.34462398  .00000681  00000+0  10409-3 0  9999
2 43930  86.6165 203.1547 0002425  89.6234 270.5261 14.72263560198748
IRIDIUM 167             
1 43931U 19002K   22266.36652132  .00000193  00000+0  62015-4 0  9998
2 43931  86.4032 203.1007 0001840  76.4423 283.6977 14.34216814193624
